[{"OBJECT_NAME":"2026-090A","OBJECT_ID":"2026-090A","EPOCH":"2026-04-24T17:42:46.082304","MEAN_MOTION":15.80198214,"ECCENTRICITY":0.00118509,"INCLINATION":96.6459,"RA_OF_ASC_NODE":34.2833,"ARG_OF_PERICENTER":244.0774,"MEAN_ANOMALY":115.9275,"EPHEMERIS_TYPE":0,"CLASSIFICATION_TYPE":"U","NORAD_CAT_ID":68826,"ELEMENT_SET_NO":999,"REV_AT_EPOCH":22,"BSTAR":0.00020266948,"MEAN_MOTION_DOT":0.00037958,"MEAN_MOTION_DDOT":0},{"OBJECT_NAME":"2026-090B","OBJECT_ID":"2026-090B","EPOCH":"2026-04-24T16:11:33.156384","MEAN_MOTION":15.80215914,"ECCENTRICITY":0.0011965,"INCLINATION":96.6473,"RA_OF_ASC_NODE":34.2234,"ARG_OF_PERICENTER":243.5513,"MEAN_ANOMALY":116.453,"EPHEMERIS_TYPE":0,"CLASSIFICATION_TYPE":"U","NORAD_CAT_ID":68827,"ELEMENT_SET_NO":999,"REV_AT_EPOCH":21,"BSTAR":0.00020158548,"MEAN_MOTION_DOT":0.00037787,"MEAN_MOTION_DDOT":0},{"OBJECT_NAME":"2026-090C","OBJECT_ID":"2026-090C","EPOCH":"2026-04-24T17:42:39.106368","MEAN_MOTION":15.80294056,"ECCENTRICITY":0.00118341,"INCLINATION":96.6472,"RA_OF_ASC_NODE":34.2814,"ARG_OF_PERICENTER":242.5779,"MEAN_ANOMALY":117.4288,"EPHEMERIS_TYPE":0,"CLASSIFICATION_TYPE":"U","NORAD_CAT_ID":68828,"ELEMENT_SET_NO":999,"REV_AT_EPOCH":22,"BSTAR":0.00020273735,"MEAN_MOTION_DOT":0.00038137,"MEAN_MOTION_DDOT":0},{"OBJECT_NAME":"2026-090D","OBJECT_ID":"2026-090D","EPOCH":"2026-04-24T17:42:37.713600","MEAN_MOTION":15.8031264,"ECCENTRICITY":0.00126008,"INCLINATION":96.6466,"RA_OF_ASC_NODE":34.2825,"ARG_OF_PERICENTER":241.1997,"MEAN_ANOMALY":118.8008,"EPHEMERIS_TYPE":0,"CLASSIFICATION_TYPE":"U","NORAD_CAT_ID":68829,"ELEMENT_SET_NO":999,"REV_AT_EPOCH":22,"BSTAR":0.00016485309,"MEAN_MOTION_DOT":0.0003101,"MEAN_MOTION_DDOT":0},{"OBJECT_NAME":"HULIANWANG JISHU SHIYAN OBJECT A","OBJECT_ID":"2026-091A","EPOCH":"2026-04-28T15:49:03.261792","MEAN_MOTION":15.19434621,"ECCENTRICITY":0.00084828,"INCLINATION":54.9993,"RA_OF_ASC_NODE":238.1031,"ARG_OF_PERICENTER":291.2601,"MEAN_ANOMALY":68.7512,"EPHEMERIS_TYPE":0,"CLASSIFICATION_TYPE":"U","NORAD_CAT_ID":68831,"ELEMENT_SET_NO":999,"REV_AT_EPOCH":67,"BSTAR":9.1997412e-5,"MEAN_MOTION_DOT":1.656e-5,"MEAN_MOTION_DDOT":0},{"OBJECT_NAME":"HULIANWANG JISHU SHIYAN OBJECT B","OBJECT_ID":"2026-091B","EPOCH":"2026-04-28T15:50:12.146784","MEAN_MOTION":15.19121536,"ECCENTRICITY":0.00085814,"INCLINATION":54.9997,"RA_OF_ASC_NODE":238.1111,"ARG_OF_PERICENTER":282.9875,"MEAN_ANOMALY":77.0186,"EPHEMERIS_TYPE":0,"CLASSIFICATION_TYPE":"U","NORAD_CAT_ID":68832,"ELEMENT_SET_NO":999,"REV_AT_EPOCH":67,"BSTAR":9.4765604e-5,"MEAN_MOTION_DOT":1.698e-5,"MEAN_MOTION_DDOT":0},{"OBJECT_NAME":"HULIANWANG JISHU SHIYAN OBJECT C","OBJECT_ID":"2026-091C","EPOCH":"2026-04-28T14:13:19.394976","MEAN_MOTION":15.19677359,"ECCENTRICITY":0.00088779,"INCLINATION":54.9988,"RA_OF_ASC_NODE":238.3859,"ARG_OF_PERICENTER":297.0826,"MEAN_ANOMALY":62.9288,"EPHEMERIS_TYPE":0,"CLASSIFICATION_TYPE":"U","NORAD_CAT_ID":68833,"ELEMENT_SET_NO":999,"REV_AT_EPOCH":66,"BSTAR":0.00016969061,"MEAN_MOTION_DOT":3.349e-5,"MEAN_MOTION_DDOT":0},{"OBJECT_NAME":"HULIANWANG JISHU SHIYAN OBJECT D","OBJECT_ID":"2026-091D","EPOCH":"2026-04-28T17:21:17.455680","MEAN_MOTION":15.20161859,"ECCENTRICITY":0.00090943,"INCLINATION":54.9992,"RA_OF_ASC_NODE":237.8086,"ARG_OF_PERICENTER":308.4257,"MEAN_ANOMALY":51.5946,"EPHEMERIS_TYPE":0,"CLASSIFICATION_TYPE":"U","NORAD_CAT_ID":68834,"ELEMENT_SET_NO":999,"REV_AT_EPOCH":68,"BSTAR":8.5605609e-5,"MEAN_MOTION_DOT":1.556e-5,"MEAN_MOTION_DDOT":0},{"OBJECT_NAME":"PRSC-E03","OBJECT_ID":"2026-092A","EPOCH":"2026-04-28T01:55:11.923104","MEAN_MOTION":15.06422626,"ECCENTRICITY":0.00047733,"INCLINATION":38.0027,"RA_OF_ASC_NODE":25.0972,"ARG_OF_PERICENTER":334.435,"MEAN_ANOMALY":25.6175,"EPHEMERIS_TYPE":0,"CLASSIFICATION_TYPE":"U","NORAD_CAT_ID":68835,"ELEMENT_SET_NO":999,"REV_AT_EPOCH":39,"BSTAR":0.00020185078,"MEAN_MOTION_DOT":2.925e-5,"MEAN_MOTION_DDOT":0},{"OBJECT_NAME":"PROGRESS-MS 34","OBJECT_ID":"2026-093A","EPOCH":"2026-04-29T11:45:59.870592","MEAN_MOTION":15.49020533,"ECCENTRICITY":0.00071134,"INCLINATION":51.6319,"RA_OF_ASC_NODE":181.1364,"ARG_OF_PERICENTER":4.2135,"MEAN_ANOMALY":355.8912,"EPHEMERIS_TYPE":0,"CLASSIFICATION_TYPE":"U","NORAD_CAT_ID":68837,"ELEMENT_SET_NO":999,"REV_AT_EPOCH":35,"BSTAR":0.00013704844,"MEAN_MOTION_DOT":7.115e-5,"MEAN_MOTION_DDOT":0}]
